STARLINK-35562          
1 66063U 25235F   25307.83336806 -.01844345  00000+0 -15267-1 0  9994
2 66063  53.1575 113.6106 0000962  79.8289 134.5327 15.72869505  3621
STARLINK-35542          
1 66064U 25235G   25307.83336806 -.01813548  00000+0 -14993-1 0  9991
2 66064  53.1568 113.6058 0001232  87.8389 128.4628 15.72838676  3622
STARLINK-35375          
1 66065U 25235H   25307.83336806 -.01848355  00000+0 -15303-1 0  9992
2 66065  53.1574 113.6023 0000950  76.8695 141.3229 15.72873224  3625
STARLINK-35179          
1 66066U 25235J   25307.83336806 -.01823357  00000+0 -15078-1 0  9997
2 66066  53.1573 113.5990 0001276  56.4614 163.6602 15.72849967  3623
STARLINK-35401          
1 66067U 25235K   25307.83336806 -.01839318  00000+0 -15221-1 0  9992
2 66067  53.1573 113.5944 0001099  80.8600 141.1710 15.72865450  3572
STARLINK-35422          
1 66068U 25235L   25307.83336806 -.01834139  00000+0 -15175-1 0  9997
2 66068  53.1570 113.5903 0001129  81.8279 142.1241 15.72860334  3578
STARLINK-35279          
1 66069U 25235M   25307.83336806 -.01837312  00000+0 -15199-1 0  9990
2 66069  53.1572 113.5868 0001540  89.6925 136.1707 15.72864454  3625
STARLINK-35295          
1 66070U 25235N   25307.83336806 -.01852157  00000+0 -15335-1 0  9998
2 66070  53.1576 113.5790 0001041  91.3082 138.3798 15.72878563  3625
STARLINK-35323          
1 66071U 25235P   25307.83336806 -.01845691  00000+0 -15277-1 0  9999
2 66071  53.1575 113.5825 0001208  89.7054 138.0720 15.72871586  3629
STARLINK-35299          
1 66072U 25235Q   25307.83336806 -.01846430  00000+0 -15281-1 0  9997
2 66072  53.1568 113.5744 0001450  91.8982 139.7102 15.72872957  3620
STARLINK-35274          
1 66073U 25235R   25307.83336806 -.01857915  00000+0 -15385-1 0  9993
2 66073  53.1571 113.5700 0001027 106.4029 127.1106 15.72886179  3628
STARLINK-35321          
1 66074U 25235S   25307.83336806 -.01827313  00000+0 -15111-1 0  9990
2 66074  53.1567 113.5656 0001536  88.5720 146.8833 15.72854003  3623
