CCSDS_OMM_VERS = 2.0
CREATION_DATE  = 
ORIGINATOR     = 

OBJECT_NAME    = STARLINK-35562
OBJECT_ID      = 2025-235F
CENTER_NAME    = EARTH
REF_FRAME      = TEME
TIME_SYSTEM    = UTC
MEAN_ELEMENT_THEORY = SGP/SGP4

EPOCH          = 2025-11-03T20:00:03.000384
MEAN_MOTION    = 15.72869505
ECCENTRICITY   = .0000962
INCLINATION    = 53.1575
RA_OF_ASC_NODE = 113.6106
ARG_OF_PERICENTER = 79.8289
MEAN_ANOMALY   = 134.5327

EPHEMERIS_TYPE = 0
CLASSIFICATION_TYPE = U
NORAD_CAT_ID   = 66063
ELEMENT_SET_NO = 999
REV_AT_EPOCH   = 362
BSTAR          = -.15267E-1
MEAN_MOTION_DOT = -.1844345E-1
MEAN_MOTION_DDOT = 0

CCSDS_OMM_VERS = 2.0
CREATION_DATE  = 
ORIGINATOR     = 

OBJECT_NAME    = STARLINK-35542
OBJECT_ID      = 2025-235G
CENTER_NAME    = EARTH
REF_FRAME      = TEME
TIME_SYSTEM    = UTC
MEAN_ELEMENT_THEORY = SGP/SGP4

EPOCH          = 2025-11-03T20:00:03.000384
MEAN_MOTION    = 15.72838676
ECCENTRICITY   = .0001232
INCLINATION    = 53.1568
RA_OF_ASC_NODE = 113.6058
ARG_OF_PERICENTER = 87.8389
MEAN_ANOMALY   = 128.4628

EPHEMERIS_TYPE = 0
CLASSIFICATION_TYPE = U
NORAD_CAT_ID   = 66064
ELEMENT_SET_NO = 999
REV_AT_EPOCH   = 362
BSTAR          = -.14993E-1
MEAN_MOTION_DOT = -.1813548E-1
MEAN_MOTION_DDOT = 0

CCSDS_OMM_VERS = 2.0
CREATION_DATE  = 
ORIGINATOR     = 

OBJECT_NAME    = STARLINK-35375
OBJECT_ID      = 2025-235H
CENTER_NAME    = EARTH
REF_FRAME      = TEME
TIME_SYSTEM    = UTC
MEAN_ELEMENT_THEORY = SGP/SGP4

EPOCH          = 2025-11-03T20:00:03.000384
MEAN_MOTION    = 15.72873224
ECCENTRICITY   = .000095
INCLINATION    = 53.1574
RA_OF_ASC_NODE = 113.6023
ARG_OF_PERICENTER = 76.8695
MEAN_ANOMALY   = 141.3229

EPHEMERIS_TYPE = 0
CLASSIFICATION_TYPE = U
NORAD_CAT_ID   = 66065
ELEMENT_SET_NO = 999
REV_AT_EPOCH   = 362
BSTAR          = -.15303E-1
MEAN_MOTION_DOT = -.1848355E-1
MEAN_MOTION_DDOT = 0

CCSDS_OMM_VERS = 2.0
CREATION_DATE  = 
ORIGINATOR     = 

OBJECT_NAME    = STARLINK-35179
OBJECT_ID      = 2025-235J
CENTER_NAME    = EARTH
REF_FRAME      = TEME
TIME_SYSTEM    = UTC
MEAN_ELEMENT_THEORY = SGP/SGP4

EPOCH          = 2025-11-03T20:00:03.000384
MEAN_MOTION    = 15.72849967
ECCENTRICITY   = .0001276
INCLINATION    = 53.1573
RA_OF_ASC_NODE = 113.5990
ARG_OF_PERICENTER = 56.4614
MEAN_ANOMALY   = 163.6602

EPHEMERIS_TYPE = 0
CLASSIFICATION_TYPE = U
NORAD_CAT_ID   = 66066
ELEMENT_SET_NO = 999
REV_AT_EPOCH   = 362
BSTAR          = -.15078E-1
MEAN_MOTION_DOT = -.1823357E-1
MEAN_MOTION_DDOT = 0

CCSDS_OMM_VERS = 2.0
CREATION_DATE  = 
ORIGINATOR     = 

OBJECT_NAME    = STARLINK-35401
OBJECT_ID      = 2025-235K
CENTER_NAME    = EARTH
REF_FRAME      = TEME
TIME_SYSTEM    = UTC
MEAN_ELEMENT_THEORY = SGP/SGP4

EPOCH          = 2025-11-03T20:00:03.000384
MEAN_MOTION    = 15.72865450
ECCENTRICITY   = .0001099
INCLINATION    = 53.1573
RA_OF_ASC_NODE = 113.5944
ARG_OF_PERICENTER = 80.8600
MEAN_ANOMALY   = 141.1710

EPHEMERIS_TYPE = 0
CLASSIFICATION_TYPE = U
NORAD_CAT_ID   = 66067
ELEMENT_SET_NO = 999
REV_AT_EPOCH   = 357
BSTAR          = -.15221E-1
MEAN_MOTION_DOT = -.1839318E-1
MEAN_MOTION_DDOT = 0

CCSDS_OMM_VERS = 2.0
CREATION_DATE  = 
ORIGINATOR     = 

OBJECT_NAME    = STARLINK-35422
OBJECT_ID      = 2025-235L
CENTER_NAME    = EARTH
REF_FRAME      = TEME
TIME_SYSTEM    = UTC
MEAN_ELEMENT_THEORY = SGP/SGP4

EPOCH          = 2025-11-03T20:00:03.000384
MEAN_MOTION    = 15.72860334
ECCENTRICITY   = .0001129
INCLINATION    = 53.1570
RA_OF_ASC_NODE = 113.5903
ARG_OF_PERICENTER = 81.8279
MEAN_ANOMALY   = 142.1241

EPHEMERIS_TYPE = 0
CLASSIFICATION_TYPE = U
NORAD_CAT_ID   = 66068
ELEMENT_SET_NO = 999
REV_AT_EPOCH   = 357
BSTAR          = -.15175E-1
MEAN_MOTION_DOT = -.1834139E-1
MEAN_MOTION_DDOT = 0

CCSDS_OMM_VERS = 2.0
CREATION_DATE  = 
ORIGINATOR     = 

OBJECT_NAME    = STARLINK-35279
OBJECT_ID      = 2025-235M
CENTER_NAME    = EARTH
REF_FRAME      = TEME
TIME_SYSTEM    = UTC
MEAN_ELEMENT_THEORY = SGP/SGP4

EPOCH          = 2025-11-03T20:00:03.000384
MEAN_MOTION    = 15.72864454
ECCENTRICITY   = .000154
INCLINATION    = 53.1572
RA_OF_ASC_NODE = 113.5868
ARG_OF_PERICENTER = 89.6925
MEAN_ANOMALY   = 136.1707

EPHEMERIS_TYPE = 0
CLASSIFICATION_TYPE = U
NORAD_CAT_ID   = 66069
ELEMENT_SET_NO = 999
REV_AT_EPOCH   = 362
BSTAR          = -.15199E-1
MEAN_MOTION_DOT = -.1837312E-1
MEAN_MOTION_DDOT = 0

CCSDS_OMM_VERS = 2.0
CREATION_DATE  = 
ORIGINATOR     = 

OBJECT_NAME    = STARLINK-35295
OBJECT_ID      = 2025-235N
CENTER_NAME    = EARTH
REF_FRAME      = TEME
TIME_SYSTEM    = UTC
MEAN_ELEMENT_THEORY = SGP/SGP4

EPOCH          = 2025-11-03T20:00:03.000384
MEAN_MOTION    = 15.72878563
ECCENTRICITY   = .0001041
INCLINATION    = 53.1576
RA_OF_ASC_NODE = 113.5790
ARG_OF_PERICENTER = 91.3082
MEAN_ANOMALY   = 138.3798

EPHEMERIS_TYPE = 0
CLASSIFICATION_TYPE = U
NORAD_CAT_ID   = 66070
ELEMENT_SET_NO = 999
REV_AT_EPOCH   = 362
BSTAR          = -.15335E-1
MEAN_MOTION_DOT = -.1852157E-1
MEAN_MOTION_DDOT = 0

CCSDS_OMM_VERS = 2.0
CREATION_DATE  = 
ORIGINATOR     = 

OBJECT_NAME    = STARLINK-35323
OBJECT_ID      = 2025-235P
CENTER_NAME    = EARTH
REF_FRAME      = TEME
TIME_SYSTEM    = UTC
MEAN_ELEMENT_THEORY = SGP/SGP4

EPOCH          = 2025-11-03T20:00:03.000384
MEAN_MOTION    = 15.72871586
ECCENTRICITY   = .0001208
INCLINATION    = 53.1575
RA_OF_ASC_NODE = 113.5825
ARG_OF_PERICENTER = 89.7054
MEAN_ANOMALY   = 138.0720

EPHEMERIS_TYPE = 0
CLASSIFICATION_TYPE = U
NORAD_CAT_ID   = 66071
ELEMENT_SET_NO = 999
REV_AT_EPOCH   = 362
BSTAR          = -.15277E-1
MEAN_MOTION_DOT = -.1845691E-1
MEAN_MOTION_DDOT = 0

CCSDS_OMM_VERS = 2.0
CREATION_DATE  = 
ORIGINATOR     = 

OBJECT_NAME    = STARLINK-35299
OBJECT_ID      = 2025-235Q
CENTER_NAME    = EARTH
REF_FRAME      = TEME
TIME_SYSTEM    = UTC
MEAN_ELEMENT_THEORY = SGP/SGP4

EPOCH          = 2025-11-03T20:00:03.000384
MEAN_MOTION    = 15.72872957
ECCENTRICITY   = .000145
INCLINATION    = 53.1568
RA_OF_ASC_NODE = 113.5744
ARG_OF_PERICENTER = 91.8982
MEAN_ANOMALY   = 139.7102

EPHEMERIS_TYPE = 0
CLASSIFICATION_TYPE = U
NORAD_CAT_ID   = 66072
ELEMENT_SET_NO = 999
REV_AT_EPOCH   = 362
BSTAR          = -.15281E-1
MEAN_MOTION_DOT = -.184643E-1
MEAN_MOTION_DDOT = 0

CCSDS_OMM_VERS = 2.0
CREATION_DATE  = 
ORIGINATOR     = 

OBJECT_NAME    = STARLINK-35274
OBJECT_ID      = 2025-235R
CENTER_NAME    = EARTH
REF_FRAME      = TEME
TIME_SYSTEM    = UTC
MEAN_ELEMENT_THEORY = SGP/SGP4

EPOCH          = 2025-11-03T20:00:03.000384
MEAN_MOTION    = 15.72886179
ECCENTRICITY   = .0001027
INCLINATION    = 53.1571
RA_OF_ASC_NODE = 113.5700
ARG_OF_PERICENTER = 106.4029
MEAN_ANOMALY   = 127.1106

EPHEMERIS_TYPE = 0
CLASSIFICATION_TYPE = U
NORAD_CAT_ID   = 66073
ELEMENT_SET_NO = 999
REV_AT_EPOCH   = 362
BSTAR          = -.15385E-1
MEAN_MOTION_DOT = -.1857915E-1
MEAN_MOTION_DDOT = 0

CCSDS_OMM_VERS = 2.0
CREATION_DATE  = 
ORIGINATOR     = 

OBJECT_NAME    = STARLINK-35321
OBJECT_ID      = 2025-235S
CENTER_NAME    = EARTH
REF_FRAME      = TEME
TIME_SYSTEM    = UTC
MEAN_ELEMENT_THEORY = SGP/SGP4

EPOCH          = 2025-11-03T20:00:03.000384
MEAN_MOTION    = 15.72854003
ECCENTRICITY   = .0001536
INCLINATION    = 53.1567
RA_OF_ASC_NODE = 113.5656
ARG_OF_PERICENTER = 88.5720
MEAN_ANOMALY   = 146.8833

EPHEMERIS_TYPE = 0
CLASSIFICATION_TYPE = U
NORAD_CAT_ID   = 66074
ELEMENT_SET_NO = 999
REV_AT_EPOCH   = 362
BSTAR          = -.15111E-1
MEAN_MOTION_DOT = -.1827313E-1
MEAN_MOTION_DDOT = 0

